start=new Date('2021-12-14T00:00:00.000Z').valueOf();
sats=[{"NORAD_CAT_ID":"48335","CENTER_NAME":"EARTH","DECAY_DATE":null,"SEMIMAJOR_AXIS":"6925.378","REF_FRAME":"TEME","LAUNCH_DATE":"2021-04-29","FILE":"3239585","BSTAR":"-0.00001730500000","REV_AT_EPOCH":"3490","RCS_SIZE":"LARGE","TLE_LINE2":"2 48335  53.0540 205.3560 0002481  76.4126 283.7139 15.06390348 34902","OBJECT_TYPE":"PAYLOAD","MEAN_MOTION":"15.06390348","MEAN_ANOMALY":"283.7139","MEAN_ELEMENT_THEORY":"SGP4","OBJECT_NAME":"STARLINK-2441","MEAN_MOTION_DDOT":"0.0000000000000","EPHEMERIS_TYPE":"0","ARG_OF_PERICENTER":"76.4126","RA_OF_ASC_NODE":"205.3560","ELEMENT_SET_NO":"999","COUNTRY_CODE":"US","TLE_LINE1":"1 48335U 21036BM  21347.91757948 -.00000540  00000-0 -17305-4 0  9993","OBJECT_ID":"2021-036BM","GP_ID":"191660103","TIME_SYSTEM":"UTC","MEAN_MOTION_DOT":"-0.00000540","EPOCH":"2021-12-13T22:01:18.867072","PERIOD":"95.593","ECCENTRICITY":"0.00024810","CLASSIFICATION_TYPE":"U","PERIAPSIS":"545.525","APOAPSIS":"548.961","INCLINATION":"53.0540","SITE":"AFETR"},{"FILE":"3239585","SEMIMAJOR_AXIS":"6925.343","REF_FRAME":"TEME","LAUNCH_DATE":"2021-05-04","DECAY_DATE":null,"NORAD_CAT_ID":"48353","CENTER_NAME":"EARTH","EPHEMERIS_TYPE":"0","ARG_OF_PERICENTER":"105.1925","RA_OF_ASC_NODE":"105.6274","MEAN_ELEMENT_THEORY":"SGP4","MEAN_ANOMALY":"254.9236","MEAN_MOTION_DDOT":"0.0000000000000","OBJECT_NAME":"STARLINK-2613","REV_AT_EPOCH":"3388","RCS_SIZE":"LARGE","OBJECT_TYPE":"PAYLOAD","TLE_LINE2":"2 48353  53.0549 105.6274 0001561 105.1925 254.9236 15.06401739 33881","MEAN_MOTION":"15.06401739","BSTAR":"-0.00002414400000","PERIOD":"95.592","ECCENTRICITY":"0.00015610","MEAN_MOTION_DOT":"-0.00000641","EPOCH":"2021-12-13T20:33:43.729632","COUNTRY_CODE":"US","TLE_LINE1":"1 48353U 21038A   21347.85675613 -.00000641  00000-0 -24144-4 0  9997","GP_ID":"191659603","OBJECT_ID":"2021-038A","TIME_SYSTEM":"UTC","ELEMENT_SET_NO":"999","SITE":"AFETR","CLASSIFICATION_TYPE":"U","APOAPSIS":"548.289","PERIAPSIS":"546.127","INCLINATION":"53.0549"},{"EPOCH":"2021-12-13T12:30:43.487424","MEAN_MOTION_DOT":"-0.00000792","PERIOD":"95.592","ECCENTRICITY":"0.00016850","ELEMENT_SET_NO":"999","TLE_LINE1":"1 48354U 21038B   21347.52133666 -.00000792  00000-0 -34289-4 0  9997","COUNTRY_CODE":"US","TIME_SYSTEM":"UTC","OBJECT_ID":"2021-038B","GP_ID":"191624738","PERIAPSIS":"546.055","APOAPSIS":"548.389","CLASSIFICATION_TYPE":"U","INCLINATION":"53.0556","SITE":"AFETR","SEMIMAJOR_AXIS":"6925.357","LAUNCH_DATE":"2021-05-04","REF_FRAME":"TEME","FILE":"3238998","NORAD_CAT_ID":"48354","CENTER_NAME":"EARTH","DECAY_DATE":null,"MEAN_ANOMALY":"267.1837","MEAN_ELEMENT_THEORY":"SGP4","OBJECT_NAME":"STARLINK-2674","MEAN_MOTION_DDOT":"0.0000000000000","ARG_OF_PERICENTER":"92.9345","RA_OF_ASC_NODE":"107.1232","EPHEMERIS_TYPE":"0","BSTAR":"-0.00003428900000","RCS_SIZE":"LARGE","REV_AT_EPOCH":"3383","MEAN_MOTION":"15.06397140","TLE_LINE2":"2 48354  53.0556 107.1232 0001685  92.9345 267.1837 15.06397140 33835","OBJECT_TYPE":"PAYLOAD"},{"EPHEMERIS_TYPE":"0","RA_OF_ASC_NODE":"106.2559","ARG_OF_PERICENTER":"97.8123","MEAN_ANOMALY":"262.3053","MEAN_ELEMENT_THEORY":"SGP4","MEAN_MOTION_DDOT":"0.0000000000000","OBJECT_NAME":"STARLINK-2635","RCS_SIZE":"LARGE","REV_AT_EPOCH":"3386","OBJECT_TYPE":"PAYLOAD","TLE_LINE2":"2 48355  53.0560 106.2559 0001650  97.8123 262.3053 15.06393285 33869","MEAN_MOTION":"15.06393285","BSTAR":"0.00009632100000","FILE":"3239585","SEMIMAJOR_AXIS":"6925.369","REF_FRAME":"TEME","LAUNCH_DATE":"2021-05-04","DECAY_DATE":null,"NORAD_CAT_ID":"48355","CENTER_NAME":"EARTH","SITE":"AFETR","CLASSIFICATION_TYPE":"U","PERIAPSIS":"546.091","APOAPSIS":"548.377","INCLINATION":"53.0560","PERIOD":"95.593","ECCENTRICITY":"0.00016500","MEAN_MOTION_DOT":"0.00001153","EPOCH":"2021-12-13T17:12:02.232864","COUNTRY_CODE":"US","TLE_LINE1":"1 48355U 21038C   21347.71669251  .00001153  00000-0  96321-4 0  9998","OBJECT_ID":"2021-038C","GP_ID":"191660105","TIME_SYSTEM":"UTC","ELEMENT_SET_NO":"999"},{"MEAN_ANOMALY":"262.6902","MEAN_ELEMENT_THEORY":"SGP4","MEAN_MOTION_DDOT":"0.0000000000000","OBJECT_NAME":"STARLINK-2637","RA_OF_ASC_NODE":"105.9603","ARG_OF_PERICENTER":"97.4315","EPHEMERIS_TYPE":"0","BSTAR":"-0.00002006700000","REV_AT_EPOCH":"3387","RCS_SIZE":"LARGE","MEAN_MOTION":"15.06398308","OBJECT_TYPE":"PAYLOAD","TLE_LINE2":"2 48356  53.0590 105.9603 0002013  97.4315 262.6902 15.06398308 33870","SEMIMAJOR_AXIS":"6925.354","LAUNCH_DATE":"2021-05-04","REF_FRAME":"TEME","FILE":"3239585","NORAD_CAT_ID":"48356","CENTER_NAME":"EARTH","DECAY_DATE":null,"PERIAPSIS":"545.825","APOAPSIS":"548.613","CLASSIFICATION_TYPE":"U","INCLINATION":"53.0590","SITE":"AFETR","EPOCH":"2021-12-13T18:42:15.919488","MEAN_MOTION_DOT":"-0.00000581","PERIOD":"95.592","ECCENTRICITY":"0.00020130","ELEMENT_SET_NO":"999","TLE_LINE1":"1 48356U 21038D   21347.77935092 -.00000581  00000-0 -20067-4 0  9994","COUNTRY_CODE":"US","TIME_SYSTEM":"UTC","GP_ID":"191660857","OBJECT_ID":"2021-038D"},{"DECAY_DATE":null,"CENTER_NAME":"EARTH","NORAD_CAT_ID":"48357","FILE":"3239585","LAUNCH_DATE":"2021-05-04","REF_FRAME":"TEME","SEMIMAJOR_AXIS":"6925.375","MEAN_MOTION":"15.06391405","TLE_LINE2":"2 48357  53.0560 105.9799 0001397  98.2918 261.8229 15.06391405 33870","OBJECT_TYPE":"PAYLOAD","RCS_SIZE":"LARGE","REV_AT_EPOCH":"3387","BSTAR":"-0.00004301000000","ARG_OF_PERICENTER":"98.2918","RA_OF_ASC_NODE":"105.9799","EPHEMERIS_TYPE":"0","OBJECT_NAME":"STARLINK-2636","MEAN_MOTION_DDOT":"0.0000000000000","MEAN_ANOMALY":"261.8229","MEAN_ELEMENT_THEORY":"SGP4","TIME_SYSTEM":"UTC","OBJECT_ID":"2021-038E","GP_ID":"191659104","TLE_LINE1":"1 48357U 21038E   21347.77566732 -.00000922  00000-0 -43010-4 0  9998","COUNTRY_CODE":"US","ELEMENT_SET_NO":"999","ECCENTRICITY":"0.00013970","PERIOD":"95.593","EPOCH":"2021-12-13T18:36:57.656448","MEAN_MOTION_DOT":"-0.00000922","SITE":"AFETR","INCLINATION":"53.0560","APOAPSIS":"548.207","PERIAPSIS":"546.272","CLASSIFICATION_TYPE":"U"},{"FILE":"3239585","LAUNCH_DATE":"2021-05-04","REF_FRAME":"TEME","SEMIMAJOR_AXIS":"6925.354","DECAY_DATE":null,"CENTER_NAME":"EARTH","NORAD_CAT_ID":"48358","ARG_OF_PERICENTER":"102.2081","RA_OF_ASC_NODE":"106.5901","EPHEMERIS_TYPE":"0","MEAN_MOTION_DDOT":"0.0000000000000","OBJECT_NAME":"STARLINK-2624","MEAN_ANOMALY":"257.9114","MEAN_ELEMENT_THEORY":"SGP4","MEAN_MOTION":"15.06398317","TLE_LINE2":"2 48358  53.0543 106.5901 0001837 102.2081 257.9114 15.06398317 33845","OBJECT_TYPE":"PAYLOAD","REV_AT_EPOCH":"3384","RCS_SIZE":"LARGE","BSTAR":"-0.00001234700000","ECCENTRICITY":"0.00018370","PERIOD":"95.592","EPOCH":"2021-12-13T15:20:33.988992","MEAN_MOTION_DOT":"-0.00000466","TIME_SYSTEM":"UTC","OBJECT_ID":"2021-038F","GP_ID":"191659355","TLE_LINE1":"1 48358U 21038F   21347.63928228 -.00000466  00000-0 -12347-4 0  9998","COUNTRY_CODE":"US","ELEMENT_SET_NO":"999","SITE":"AFETR","INCLINATION":"53.0543","PERIAPSIS":"545.947","APOAPSIS":"548.491","CLASSIFICATION_TYPE":"U"},{"DECAY_DATE":null,"CENTER_NAME":"EARTH","NORAD_CAT_ID":"48359","FILE":"3239585","REF_FRAME":"TEME","LAUNCH_DATE":"2021-05-04","SEMIMAJOR_AXIS":"6925.367","TLE_LINE2":"2 48359  53.0560 106.6096 0001598  92.3332 267.7840 15.06393926 33849","OBJECT_TYPE":"PAYLOAD","MEAN_MOTION":"15.06393926","RCS_SIZE":"LARGE","REV_AT_EPOCH":"3384","BSTAR":"-0.00004419500000","EPHEMERIS_TYPE":"0","ARG_OF_PERICENTER":"92.3332","RA_OF_ASC_NODE":"106.6096","MEAN_MOTION_DDOT":"0.0000000000000","OBJECT_NAME":"STARLINK-2628","MEAN_ELEMENT_THEORY":"SGP4","MEAN_ANOMALY":"267.7840","OBJECT_ID":"2021-038G","GP_ID":"191660605","TIME_SYSTEM":"UTC","COUNTRY_CODE":"US","TLE_LINE1":"1 48359U 21038G   21347.63560156 -.00000940  00000-0 -44195-4 0  9994","ELEMENT_SET_NO":"999","ECCENTRICITY":"0.00015980","PERIOD":"95.593","MEAN_MOTION_DOT":"-0.00000940","EPOCH":"2021-12-13T15:15:15.974784","SITE":"AFETR","INCLINATION":"53.0560","CLASSIFICATION_TYPE":"U","PERIAPSIS":"546.126","APOAPSIS":"548.339"},{"EPHEMERIS_TYPE":"0","RA_OF_ASC_NODE":"106.0227","ARG_OF_PERICENTER":"91.1305","OBJECT_NAME":"STARLINK-2622","MEAN_MOTION_DDOT":"0.0000000000000","MEAN_ELEMENT_THEORY":"SGP4","MEAN_ANOMALY":"268.9907","TLE_LINE2":"2 48360  53.0572 106.0227 0001949  91.1305 268.9907 15.06394720 33863","OBJECT_TYPE":"PAYLOAD","MEAN_MOTION":"15.06394720","REV_AT_EPOCH":"3386","RCS_SIZE":"LARGE","BSTAR":"-0.00004608100000","FILE":"3239585","REF_FRAME":"TEME","LAUNCH_DATE":"2021-05-04","SEMIMAJOR_AXIS":"6925.365","DECAY_DATE":null,"CENTER_NAME":"EARTH","NORAD_CAT_ID":"48360","SITE":"AFETR","INCLINATION":"53.0572","CLASSIFICATION_TYPE":"U","APOAPSIS":"548.579","PERIAPSIS":"545.880","ECCENTRICITY":"0.00019490","PERIOD":"95.592","MEAN_MOTION_DOT":"-0.00000968","EPOCH":"2021-12-13T18:21:02.313504","GP_ID":"191660358","OBJECT_ID":"2021-038H","TIME_SYSTEM":"UTC","COUNTRY_CODE":"US","TLE_LINE1":"1 48360U 21038H   21347.76461011 -.00000968  00000-0 -46081-4 0  9996","ELEMENT_SET_NO":"999"},{"REF_FRAME":"TEME","LAUNCH_DATE":"2021-05-04","SEMIMAJOR_AXIS":"6925.369","FILE":"3239585","CENTER_NAME":"EARTH","NORAD_CAT_ID":"48361","DECAY_DATE":null,"MEAN_MOTION_DDOT":"0.0000000000000","OBJECT_NAME":"STARLINK-2591","MEAN_ELEMENT_THEORY":"SGP4","MEAN_ANOMALY":"263.6948","EPHEMERIS_TYPE":"0","ARG_OF_PERICENTER":"96.4206","RA_OF_ASC_NODE":"106.6786","BSTAR":"-0.00003911900000","OBJECT_TYPE":"PAYLOAD","TLE_LINE2":"2 48361  53.0463 106.6786 0001452  96.4206 263.6948 15.06393215 33849","MEAN_MOTION":"15.06393215","RCS_SIZE":"LARGE","REV_AT_EPOCH":"3384","MEAN_MOTION_DOT":"-0.00000864","EPOCH":"2021-12-13T15:04:38.989920","ECCENTRICITY":"0.00014520","PERIOD":"95.593","ELEMENT_SET_NO":"999","OBJECT_ID":"2021-038J","GP_ID":"191659604","TIME_SYSTEM":"UTC","COUNTRY_CODE":"US","TLE_LINE1":"1 48361U 21038J   21347.62822905 -.00000864  00000-0 -39119-4 0  9994","INCLINATION":"53.0463","CLASSIFICATION_TYPE":"U","APOAPSIS":"548.240","PERIAPSIS":"546.229","SITE":"AFETR"}];
